{"fetched_at":"2026-03-29T16:36:15Z","count":15609,"tles":[{"name":"AETHER-7","line1":"1 67378U 26004R   26087.95031071  .00001017  00000+0  11713-3 0  9996","line2":"2 67378  97.8013  87.8312 0006169  52.8237 307.3542 14.87838694 11351","category":"Other"}]}